{
  "norad_id": 68707,
  "name": "STARLINK-37112",
  "history": [
    {
      "epoch": "2026-04-23T17:06:47.951136Z",
      "apogee_km": 320.37340685434356,
      "perigee_km": 319.22404108411047,
      "latitude_deg": 1.3438989549280103e-05,
      "longitude_deg": 86.78757286099861,
      "height_km": 320.16985596752505,
      "semi_major_axis_km": 6697.935723969227,
      "eccentricity": 8.58e-05,
      "inclination_deg": 53.1599,
      "raan_deg": 195.2437,
      "arg_perigee_deg": 17.1786,
      "mean_anomaly_deg": 342.9267,
      "mean_motion_rev_day": 15.83767033
    }
  ]
}