STARLINK-37112          
1 68707U 26081J   26113.71305499 -.00651415  00000+0 -30999-2 0  9991
2 68707  53.1599 195.2437 0000858  17.1786 342.9267 15.83767033  1494
